"Id","Code","Name","Address","City","State","Zip","Phone","Email"
"1","5680-FSKNRS-3735","Angrod's Ethical Friendliness Dentistry","1463 Galighner Terrace","Prescott","AZ","85067","602-945-4550",
"4","JRDKNFVK-1923-2729170","Balin's Ethical Postscript Oil Extraction","1278 Beechmont Trail","Jupiter","FL","33424",,
"5","1334730-XUKBVXEE-1910","Felagund's Fluorescent Preparedness Insurance","532 Blackrun Boulevard","Rock Springs",,"82939","307-686-7499","donald.felagund@fluorescentinsurance.biz"
"6","MNGLPYPF-5118-3310830","Gwaihir's Perplexing Spacecraft Publishing","1670 Coshocton Lane","Makakilo","HI","96753","808-781-9302","samantha.gwaihir@perplexingpublishing.us"
"7","GVUPPA-7087-502670","Bombadil's Uncritically Weirdness Publishing","457 Burnell Boulevard","Atlanta","GA","31792","404-752-3249","publishing@juan.bombadil.com"
"8","262-2750-LMDOH","Alatar's Archeological Witchcraft Architecture","515 Bonaparte Drv","Longmeadow","MA","1610","413-634-5856",
"9","7995630-ATCZXH-746","Galadriel's Malfunctioning Imperialists Medical Services","593 Dresden Street","Kenner","LA","71363","337-501-8427","medicalservices@lilly.galadriel.co.uk"
"10","509-69240-KGDTXP","Gildor's Indexing Incompatibility Bail Bonds","680 Waters Ridge","Marshfield","WI","54016","920-213-0036","angelica.gildor@incompatibilitybailbonds.org"
"11","5338-1930-XAPRCOY","Gamgee's Incremental Consists Real Estate Agency","1067 Orders Place","Blytheville",,"71951",,"harold.gamgee@realestateagency.com"
"12","QWJWKG-1704-87320","Bombadil's Indexing Synthesizer Technical School","1225 Blackwood Avenue","Sunset",,"34685","448-689-9769","valerie.bombadil@synthesizertechnicalschool.net"
"13","SXFXBJS-717-3421270","Dwalin's Developmental Textures Travel Agency","1017 Burbank Heights","Huntington","IN","47809",,"travelagency@charles.dwalin.net"
"14","IJVKBCY-8239-70650","Faramir's Hideous Credibility Auto Dealership","1324 Beauty Ln","Wailuku","HI","96823","808-534-1538","autodealership@laura.faramir.co.uk"
"15","6818-95960-SLYMZA","Galadriel's Perplexing Anarchists Funeral Director","1457 Teakwood Place","Laramie","WY","83114","307-854-1326","funeraldirector@alyssa.galadriel.net"
"16","7373-8420-FVIDQYSG","Manwe's Transparent Averages Occupational Therapy","699 Harbor Ave","West Hartford",,"6132","959-920-8213","occupationaltherapy@lida.manwe.us"
"17","6120-APYYG-8519","Eomer's Logistically Lightness Hotels","1365 Jewitt Circle","Murray","UT","84653","435-716-7445","annabella09length.eomer@logisticallyhotels.com"
"18","3520-ZHSLO-9369","Luthien's Evanescent Residual Whiskey Manufacturing","925 Cornstill Lane","Spring Valley","NV","89424",,"whiskeymanufacturing@joe.luthien.net"
"19","3910-GOXBKS-6223","Faramir's Marginally Transcript Residential Care Facility","508 High Trail","Camp Springs","MD","21223",,"residentialcarefacility@cynthiafaramir.com"
"21","1573-9218970-LXXYBJI","Aldarion's Malevolent Energizer Marketing and Advertising","438 Parliament Ridge","Edison","NJ","8607","201-946-1961","marketingandadvertising@linda.aldarion.us"
"22","78810-OEHNQCDE-368","Orome's Paradoxical Avoid Towing","914 Locust St","Morristown",,"37604","901-714-6248","towing@billy.orome.us"
"23","1570-85780-NLOXBDU","Khamul's Inconvenient Humorists Athletic Training","1289 Dickson Ave","Warwick","RI","2839","401-868-0116","lida.khamul@inconvenientathletictraining.biz"
"24","FJWEIUVS-9097-444920","Shagrat's Environmental Biannual Wholesale Drug Distribution","1136 Bottom Street","Redmond","WA","98305",,"wholesaledrugdistribution@henryshagrat.com"
"26","FVHZZIL-905-30150","Elendil's Crescent Longevity Janitorial Services","410 Holmes Crescent","McDonough","GA","30598",,
"27","2867-7633990-HXIQZDCM","Treebeard's Expedient Devoid Beauty Salon","758 Burnet Run","KÄneâ€˜ohe","HI","96748","808-090-9101","beautysalon@susan.treebeard.co.uk"
"28","MJJMH-762-2870","Turin's Indexing Individual Substance Abuse Services","1312 Codell Square","Mesquite","NV","89105",,
"29","318-60890-UGLWDVMY","Tilion's Oriental Textures Catering","1735 Wentz Ave","Holbrook","NY","11701","646-842-4254","elijah.tilion@texturescatering.co.uk"
"30","6320-LCPRIRQF-1711","Elwing's Supplement Spacecraft Specialty Meat","421 Rosewood Ridge","Sumter","SC","29225",,"specialtymeat@willie.elwing.net"
"31","UCKWQIM-6980-37380","Celebrimbor's Centralized Politeness Technical School","853 Ambarassdor Terrace","Taylors","SC","29452",,"betty.celebrimbor@technicalschool.com"
"32","4607300-LOVXATQ-1711","Khamul's Malfunctioning Multilingual Hospital","1288 Broad Heights","Michigan City",,"47922","317-949-0780","veronica.khamul@multilingualhospital.com"
"34","9196-1440-ELDSGQZ","Luthien's Continental Homosexual Barber Shop","1279 Arch Boulevard","Watertown","WI","54848","414-250-7300","barbershop@marishka.luthien.com"
"35","8824-67110-KFUTQTDP","Mablung's Multicultural Devoid Nail Salon","656 Monroe Crescent","Walker","MI","48191","989-519-8654","bailey.mablung@devoidnailsalon.org"
"36","5060-TJYUK-711","Turgon's Comical Villages Plumbing","1021 Hewitt Street","Secaucus","NJ","7721","973-359-1874","liv.turgon@plumbing.org"
"37","609240-JDCRKV-2125","Beor's Rhetorical Appendages Vocational Rehabilitation","1447 Laurel Rd","Saint Matthews",,"40921",,"vocationalrehabilitation@rachelbeor.co.uk"
"39","30760-LVSGO-8111","Artanis's Autonomous Postscript Hospital","1232 Carey Blvd","Makakilo",,"96828","808-246-1882",
"40","264530-YSJBAKR-7541","Sulimo's Onerous Connectivity Used Car Sales","1233 Hartford Street","Radcliff",,"42083","364-241-8440",
"41","MRFEOHF-909-155740","Grahame's Rancorous Insures Veterinary Medicine","1576 Chapman Square","Smithfield","RI","2873","401-913-0030","veterinarymedicine@frances.grahame.org"
"42","7065-1200-OFEJTLG","Damrod's Perplexing Liveliness Fitness Center","468 Kerri Boulevard","Iowa City","IA","52211","563-226-9416","daniella.damrod@fitnesscenter.us"
"43","225940-XWTJVQFD-7703","Shadowfax's Repositioning Energizer Cosmetology School","1523 Cass Trail","Paramount","CA","95354",,
"44","59890-RVGUHYQ-325","Luthien's Natural Spacecraft Collection Agency","455 Darlington Parkway","Fairbanks",,"99621",,"jacob.luthien@collectionagency.us"
"45","1977-85460-JSGJBSO","Oakenshield's Natural Casual Marketing and Advertising","1027 Pennsylvania Avenue","West Raleigh","NC","27617","828-271-8939","marketingandadvertising@deniseoakenshield.us"
"46","DQRAIB-8464-4886810","Snaga's Perilous Municipality Fast Food Food Factories","1695 Ball Station","Grand Island","NE","68441","308-722-8543","fastfoodfoodfactories@jamie.snaga.org"
"47","YDEZESD-8053-64150","Frodo's Characterized Consensual Technical School","465 Surger Station","Missoula","MT","59521",,"technicalschool@alyssa.frodo.biz"
"48","7910-NNQBGX-4782","Orome's Current Energizer Specialty Fruit","531 Eddy Crescent","Spanish Springs","NV","89163","725-816-8654","specialtyfruit@zoey.orome.us"
"49","6518880-UNJNDT-5562","Thorondor's Instrumental Paranoid Personal Assistant","841 Kahler Lane","Opportunity","WA","99144",,"personalassistant@willie.thorondor.us"
"50","3037-971520-RBLYCU","Numenor's Repositioning Organizer Oil Extraction","507 Fayette Run","Griffin","GA","30756","706-861-6006","oilextraction@jeffrey.numenor.net"
"51","37820-OONZIHRQ-6397","Curufin's Politically Paranoid Racetrack","1339 Larzelere Boulevard","Logansport","IN","46157",,
"52","BWHMZ-710-8920","Quickbeam's Accent Equalizer Sports Agency","486 Dixon Heights","Hope Mills","NC","27022","919-531-5234","magdalena.quickbeam@accentsportsagency.biz"
"53","6260-LQUYYPHE-4935","Artanis's Perplexing Annual Publishing","605 Redman Parkway","Cheyenne","WY","82839","307-210-1408",
"54","CXRQOE-370-5320","Proudfoot's Biologically Deniability HVAC Repair","1642 Gallia Way","West Chester",,"15906","272-153-7357","ryan09length.proudfoot@hvacrepair.net"
"55","3470-MFQSHZ-550","Strider's Publically Void Drug Screening","1113 Oakwood Lane","Bethesda","MD","21001","443-181-7200","amy.strider@voiddrugscreening.org"
"56","2848320-VUQYRV-9027","Olorin's Medical Manuscript Technical School","1280 Pinkley Circle","West Saint Paul","MN","55790","320-277-5971","technicalschool@victoria.olorin.us"
"57","ZGXGYAE-466-80580","Curufin's Indexing Steroid Bakery","857 Galigher Run","Tucker","GA","31136","678-968-6733","veronica.curufin@steroidbakery.org"
"58","ZVJBVFLL-3337-60440","Pippin's Sentimental Realists Mortgage Company","491 Briarleigh Square","Lockport","NY","12483",,"rebecca.pippin@sentimentalmortgagecompany.com"
"59","2743-23830-FUTVOGTW","Felagund's Elemental Witchcraft Nail Salon","1311 Perine Park","Scottsdale",,"85358","623-194-4613","nailsalon@dorothy.felagund.com"
"60","IEYTDEU-480-908950","Palantir's Mathematical Steroid HVAC Repair","567 Raiders Street","Del City","OK","74937",,"hvacrepair@molly.palantir.biz"
"61","311-743010-AYVBXIR","Isildur's Structurally Postscript Locksmith","1222 Gantz Station","Leominster","MA","1906","774-193-8590","locksmith@christopher.isildur.org"
"62","DZVWQGJN-804-169590","Oakenshield's Structural Architectures Specialty Seafood","1007 Aspen Circle","Syracuse","NY","14617","585-297-7960",
"63","9639-3778190-PYSPZEH","Bergil's Malfunctioning Stabilizer Racetrack","1195 Huntington Heights","Vincennes","IN","47647","260-605-3076","racetrack@joe.bergil.com"
"64","75770-UEHZRJZ-113","Sauron's Repositioning Manuscript Home Inspection","1541 Vicki Ln","Andover","MN","56570",,
"65","RUORHZJ-860-52590","Tuor's Procedurally Gestures Mortgage Company","1455 Tremont Terrace","Pampa","TX","79503","346-533-8028","theresa.tuor@mortgagecompany.us"
"67","58750-HEQXYHOR-312","Merry's Localized Attractiveness Agriculture & Pitchfork Stuff","1644 Brick Crescent","West Seneca","NY","11365","646-933-4090","agriculturepitchforkstuff@jennifermerry.net"
"68","ALAMK-8581-7370","Fimbrethil's Procedural Infrastructures Gas Extraction","1335 Coburg Trail","Lackawanna","NY","13620","518-297-8387","gregory09length.fimbrethil@infrastructuresgasextraction.org"
"69","221010-EYFDLGAL-488","Amros's Continental Miniatures Tax Preparation","1587 Whipple Court","Middle River",,"21282","667-700-5380","mitch.amros@taxpreparation.co.uk"
"70","5322-760790-MZCOIIDH","Beor's Naturalized Defensiveness Funeral Director","452 Burlington Crescent","Central","LA","70560",,
"71","2352690-IIPHMD-576","Legolas's Unequivocally Textures Marketing and Advertising","1170 Goddard Trail","Enterprise","NV","89310",,
"72","302-7450-DCILLRC","Melkor's Traditionally Postscript Hospital","1632 Circle Ridge","Dodge City","KS","67456","620-713-3727","samantha09length.melkor@traditionallyhospital.us"
"73","FOBNNJ-731-890570","Cotton's Ridiculous Manufactures Security Systems","1477 Robinson St","Roanoke Rapids","NC","28056","252-646-0873","marishka.cotton@ridiculoussecuritysystems.co.uk"
"74","8512790-YHHDF-893","Theoden's Mystical Void Cash Advances","991 Mccaslin Crescent","Hanahan",,"29492","864-001-5268","cashadvances@chelsea.theoden.co.uk"
"75","2422-212960-RXFHX","Bolg's Departmental Publicists Concrete Manufacturing","1486 Erie Ln","Hannibal","MO","63730","573-809-5649",
"76","538390-SKNFDX-1723","Finarfin's Cultural Liability Concrete Manufacturing","1716 Roper Heights","Logan","UT","84750","435-653-4645",
"77","3310-EAPKGBZ-674","Celebrian's Malfunctioning Witchcraft Security Systems","993 Lomita Lane","Columbus",,"68504","402-084-7160",
"79","ISPCDTA-6288-8633140","Fimbrethil's Internally Socialists Mental Health Services","1486 Watkins Road","Cedar Park","TX","79785","409-170-2329",
"80","NVJNECBS-3165-61780","Tinuviel's Indexing Equalizer Contracting","1345 Bluff Road","Caledonia","WI","54520","608-049-5013","tina.tinuviel@indexingcontracting.biz"
"82","DADDYISE-9285-227320","Sulimo's Architectural Panelists Youth Services","903 Leedom Ave","Rogers",,"72006","501-594-3901",
"83","978350-TRCWKV-3555","Alcarin's Experimental Synthesizer Bail Bonds","1519 Salem Drive","Palm Harbor",,"34265",,
"84","BXSTHNME-9446-111720","Beechbone's Horticultural Homosexual Accounting","689 Britton Path","Kailua","HI","96826",,"accounting@katie.beechbone.co.uk"
"85","7752-793370-ZJFMXF","Shagrat's Transcendental Stabilizer Photography","1376 Ayers Drv","Pittsburg","KS","67010","785-863-0776",
"86","820-113230-HKHQUIFL","Angmar's Evanescent Witchcraft Optometry","1786 Gordon Parkway","Laramie","WY","82227","307-707-6765","optometry@emily.angmar.org"
"88","WHHPSPOK-8689-847260","Angrod's Pertinent Postscript Collection Agency","1211 Hebron Blvd","West Albany","NY","11201","212-435-9373","elijah.angrod@postscriptcollectionagency.net"
"89","HPJMR-928-6129020","Cirdan's Elemental Envisages Investing","483 Cherlick Ave","Henderson",,"41128",,"andrew.cirdan@elementalinvesting.org"
"90","ZNCQMM-176-771180","Beregond's Perplexing Elasticity Construction","1438 Ritchey Court","Garden City",,"67864","785-604-5412","vanessa.beregond@perplexingconstruction.com"
"93","9330-AAYLZCKG-9579","Aldarion's Fictitious Enforceability Log Cutting Forestry and Wildlife ","818 Cottage Crescent","Lewiston Orchards",,"83238",,"logcuttingforestryandwildlife@theresaaldarion.org"
"94","2487-729740-BQRNVF","Azog's Multicultural Failures Radiology","1724 Island Path","Emporia",,"66023","620-206-7252","radiology@audrey.azog.com"
"95","49540-NCVYD-5883","Denethor's Architectural Publicists Home Health Services","1135 Euclid Boulevard","Coventry",,"2888",,"joyce.denethor@architecturalhomehealthservices.us"
"96","4564-1635210-FLKZCV","Sharku's Governmental Postscript Security Systems","1434 Imlay Place","East Chattanooga","TN","38029",,"securitysystems@theodore.sharku.com"
"97","5665-47630-FAFBLPY","Thranduil's Departmental Thickness Fast Food Food Factories","1375 Turner Ave","Newark","DE","19706","302-056-2538",
"98","59080-WLUUJCHM-4310","Thorin's Internally Appendages Casino","1378 Elmville Drive","Sulphur","LA","70835","318-992-5645","casino@sydney.thorin.co.uk"
"99","723-8275620-LSXPJ","Nienna's Confidentially Figures Home Inspection","1496 Nugent Crescent","Dover","NH","3840","603-511-8729","homeinspection@justice.nienna.net"
"100","DSVDJ-9529-48030","Fatty's Repositioning Witchcraft Trade School","927 Hartwell Terrace","Brookings","SD","57213",,"russell.fatty@repositioningtradeschool.com"
"101","ZRJFONJF-5741-172670","Gothmog's Architectural Discourages Interior Design","845 Akron Parkway","Salem","NH","3464","603-192-4768","beverly.gothmog@architecturalinteriordesign.org"
"102","367-746640-PZEAYTAC","Bombadil's Malfunctioning Sausages Oil Extraction","746 Gallia Avenue","Moorpark","CA","90210","805-174-5138","wayne.bombadil@oilextraction.us"
"103","35630-NZXVKTY-265","Eru's Clinically Witchcraft Auditing","1259 Arborwood Circle","Muskogee",,"74755","572-587-7202","ellen.eru@clinicallyauditing.com"
"104","4390-GHGNCNRK-7800","Feanor's Generous Psychologists Occupational Therapy","1260 Lawyers St","Cambridge",,"1257","508-698-4350","occupationaltherapy@jane.feanor.us"
"105","YPRUACW-7050-759160","Morgoth's Slanderous Synthesizer GED Certification","1444 Indiana Ridge","State College","PA","15545","445-899-1636","gedcertification@ariel.morgoth.net"
"106","58030-YTNKQC-3312","Samwise's Fluorescent Multilingual Cash Advances","518 Glessner Place","Metairie Terrace","LA","70585","337-729-2768","linda.samwise@cashadvances.com"
"109","568520-SSNFH-988","Bombadil's Egregious Encourages Pawn Brokers","757 Dragoo Ave","Sunny Isles Beach",,"32452","941-241-1712",
"111","2068470-ZXKWKR-4777","Took's Revolutionized Transcript Bakery","794 Ellsworth Parkway","Farmington","MO","64193","417-873-3573","bakery@roy.took.biz"
"112","4327-2720-PEBSMIGO","Maggot's Percent Injures Youth Services","906 Heber Blvd","Clarksdale","MS","38731",,
"113","EYAKK-4403-9560","Pharazon's Chemical Stabilizer Travel Agency","1538 Normandy Road","Woodland Hills",,"95481","279-128-1033","travelagency@robert.pharazon.us"
"114","6012-660770-ARVZCS","Maeglin's Murderous Energizer Photography","1667 Friendship Station","Burlington",,"50332","641-677-6343","photography@peter.maeglin.biz"
"115","1214-915530-RAPXYO","Undomiel's Natural Factual Specialty Seafood","763 Talley Circle","CaÃ±on City","CO","80941",,"monica09length.undomiel@specialtyseafood.org"
"116","WHTJFH-508-88290","Halbarad's Continental Organizer Event Planning","1748 Lawn Square","Fairbanks","AK","99950","907-244-2762",
"118","3287-3651410-IWBEUR","Eomer's Arduous Temperatures Chiropractic Office","1420 Mcarthur Park","Gulfport","MS","39201","228-893-9756","jonathan.eomer@chiropracticoffice.us"
"119","9031-4940-AZRSQIR","Silmiril's Complement Stabilizer Auditing","1725 Beatty Ln","Beloit","WI","54857","920-680-0136","auditing@jade.silmiril.biz"
"120","4477-6905450-QFWJAHI","Fingolfin's Malfunctioning Organizer Storage","501 Purdy Terrace","Pawtucket",,"2824",,"storage@nadine.fingolfin.co.uk"
"121","7855200-TEMUDJOT-215","Elbereth's Horticultural Persists Catering","1760 Shinick Circle","Watertown","SD","57369","605-210-9666","catering@dorothy.elbereth.us"
"122","5464-16360-WHTCB","Deagol's Structural Dentists Locksmith","1678 Prison Park","West Hartford",,"6912","203-354-8233","locksmith@kylie.deagol.us"
"123","4438-9450-QIRWE","Eomer's Indexing Spacecraft Employment Office","1509 Merrimac Heights","Pahrump","NV","89428","725-441-6187",
"125","8576-1920-CDCXW","Samwise's Incidental Packages Athletic Training","1279 Barkley Drive","Washington",,"84523","385-281-0960","christian09length.samwise@incidentalathletictraining.us"
"126","YCTDE-6702-1000","Yavanna's Unnatural Persists Telemarketing","666 Woodlawn Way","Covington","WA","98227","360-355-9904",
"127","6470-HXAPT-6198","Draugin's Vincent Generalists Bank","1773 Sunrise Place","Moore","OK","74764",,"bank@jessica.draugin.net"
"128","450730-UXQVWWM-8517","Idril's Unrealized Transcript Contracting","1643 Dietz Street","Merrimack","NH","3820","603-955-9671","marishka09length.idril@contracting.co.uk"
"129","609-65210-PQZPPMJ","Gimli's Expedient Devoid Bakery","604 Sugartree Lane","Colorado Springs","CO","80543",,"hanna09length.gimli@bakery.org"
"130","6346-7429480-RMBPAWM","Turambar's Malfunctioning Totality Bank","1750 Columbus Lane","Middleburg Heights",,"44223","326-847-7722","jamie.turambar@malfunctioningbank.biz"
"131","MSVFK-438-9558870","Morgoth's Subsequent Finalists Repair and Maintenance","1013 Bateman Lane","Kearns","UT","84522","801-418-5844","repairandmaintenance@pamela.morgoth.us"
"132","3500-UQMQHRP-180","Quickbeam's Supplemental Fickleness Boring Crop Production","426 Catt Ln","Denton","TX","78404",,"boringcropproduction@christian.quickbeam.us"
"133","205430-CZEVAF-8527","Deagol's Complacent Witchcraft Chiropractic Office","624 Clarence Court","Fairbanks","AK","99782",,"kelsey.deagol@complacentchiropracticoffice.net"
"134","121-5914640-SYMIY","Angmar's Culturally Philanthropists Oil Extraction","1742 Street Ln","Milledgeville","GA","30411","470-243-6956","joan.angmar@philanthropistsoilextraction.com"
"135","4618-6440-PHJETWZ","Morwen's Culturally Transcript Dry cleaning","623 Columbia Square","Hollywood","CA","95336",,"juliet.morwen@drycleaning.us"
"136","QVUIO-5774-3620","Angmar's Repositioning Organizer Insurance","1105 Hamburg Ln","Jasmine Estates","FL","32182","772-883-3417","insurance@chelsea.angmar.biz"
"137","535-79510-JWKPTR","Dwalin's Inaugural Biologists Investing","489 Highview Circle","Forest Hills","MI","49220","248-094-1445",
"138","3320-PJAKOSO-1925","Hamfast's Suspicious Devoid Plumbing","780 Whaley Place","Midvale","UT","84109",,"william09length.hamfast@suspiciousplumbing.us"
"139","LBJSWJ-6847-6150","Gamling's Psychologically Postscript Video Production","926 Mulberry Road","Schererville","IN","46928","765-971-9960",
"141","6291-1950-MXYNRER","Bolg's Specialized Brutality Home Inspection","803 Bolton Street","Portland","ME","4219","207-879-1713",
"142","9991120-OCWNNL-804","Valinor's Itemized Transcript Casino","1491 Heckel Blvd","Drexel Heights",,"85240","520-766-0932","casino@robert.valinor.com"
"143","5915-2973450-PMDJRJFY","Hurin's Adolescent Encourages Repair and Maintenance","531 Findley Drive","Laurel","MS","38745","228-407-4895","sara.hurin@repairandmaintenance.org"
"145","TSKLUPM-3156-650080","Finwe's Anecdotally Virtual Tax Preparation","983 Selsam Place","Thomasville","GA","30222","470-397-3329","taxpreparation@brianna.finwe.net"
"146","4767-65780-QHSMD","Earendil's Repositioning Foolishness Electrolysis","603 Norwich Station","Clinton",,"51570","712-154-2399","electrolysis@ana.earendil.us"
"148","406-340520-FVJKOC","Thorin's Sympathized Closures Bank","1060 Okey Ln","Lansing","MI","49829","517-400-1798",
"149","FGGTIPR-3086-333760","Huan's Reorganized Void Massage and Day Spa","1272 Wheatland Road","Williamsport","PA","17563","267-345-1362","massageanddayspa@madison.huan.net"
"150","35460-IJZDTKUB-1738","Boromir's Perplexing Manuscript Athletic Training","454 None Drive","Brighton","CO","80453","719-121-1558","athletictraining@lucas.boromir.us"
"151","QRGJH-8084-53280","Grahame's Unnatural Factual Locksmith","1479 Hazlett Parkway","Mount Clemens","MI","49651","248-259-8517","locksmith@timothy.grahame.biz"
"152","HDEEDB-977-765140","Fingolfin's Architectural Marriages Electrolysis","1291 Wolford Drive","Omaha","NE","68850","531-338-6243","jack.fingolfin@marriageselectrolysis.net"
"153","AZDRNJED-701-7410","Dori's Technical Specialists Dry cleaning","1566 Millers Parkway","Berwyn",,"62825","872-599-0271","michael.dori@specialistsdrycleaning.biz"
"154","32050-KDHIJW-7068","Alatar's Utilized Avoid Building Inspection","791 Stanton Ridge","Tooele","UT","84025",,"buildinginspection@liv.alatar.biz"
"157","186370-RHUUI-5451","Kili's Malfunctioning Casual Mental Health Services","785 Webster Road","Owasso","OK","74829",,"bailey.kili@malfunctioningmentalhealthservices.org"
"158","2530-VCNVMLVW-6833","Annatar's Incremental Atrocity Medical Transportation","1027 Cattail Lane","Kendall West","FL","33320","954-860-2281",
"159","424-48040-EAKYBHK","Elladan's Optimistically Equalizer Bookkeeping","416 Nor-Bixbey Ln","Lee's Summit","MO","64022",,"autumn.elladan@optimisticallybookkeeping.org"
"160","456-4072790-TOSUP","Baggins's Instrumental Diversity Funeral Director","964 Basin Heights","Fort Thomas","KY","40259","606-232-6180","funeraldirector@melissa.baggins.co.uk"
"161","PNJJJN-2901-9630","Samwise's Intercontinental Transcript Quantum Computational Data Technologies and File Cabinets","1651 Dads Parkway","Butte",,"59421","406-622-5665",
"162","3979-7736580-SPHNBN","Gollum's Nascent Carelessness Specialty Fruit","560 Breezewood Square","Wichita","KS","66869",,"michaela.gollum@nascentspecialtyfruit.com"
"163","6270-PNTQTSN-7569","Draugin's Environmental Resourcefulness Pharmacy","577 Ceramic Avenue","Marshalltown","IA","52759","641-213-5248",
"164","4319-931350-TFMKQKXA","Sharku's Percent Avoid Car Rental","1076 Talley Street","Marion","IN","46365","317-246-8038","brianna.sharku@avoidcarrental.co.uk"
"166","IEOYDEL-7697-4980","Helm Hammerhand's Perplexing Organizer Equipment Rentals","1451 Dana Circle","Del City",,"74764","918-302-5411","equipmentrentals@kayla.hammerhand.biz"
"167","6270-1560-PAKMVONR","Gil-Galad's Incidental Intellectual Child Care Services","1586 Decrow Way","Laconia","NH","3809","603-388-4183","childcareservices@kai.gilgalad.net"
"168","YBWZRVO-361-94790","Amros's Indexing Cleverness Extermination and Parasite Destruction","1524 Campbell Heights","Mason City",,"51572","712-624-0483","jackson09length.indexing@amros.com"
"169","668270-YBGQKWH-135","Curufin's Unanimous Witchcraft Oil Extraction","1552 Dana Station","Mountain Top",,"15617","724-045-4323",
"170","SIDVD-5948-4476700","Mablung's Descent Homogeneity Fishing and Creature Hunting Murdering","1582 Harris Heights","Granite City","IL","62295","872-123-2872",
"171","LBAHH-9355-29220","Elrond's Architectural Mindedness Barber Shop","1483 Christopher Square","Bridgeport","CT","6525","959-385-7270","barbershop@daniel.elrond.net"
"172","PNIBDN-9045-920290","Elessar's Diametrically Spiritual Beauty Salon","835 Sturtz Circle","Middleburg Heights",,"45844","234-563-0124",
"174","PGEZP-601-668840","Lorien's Preferentially Void Plumbing","1662 Howard Boulevard","Fall River","MA","1824","351-744-3433","plumbing@lucy.lorien.org"
"175","236-495980-TWLTV","Bolger's Terrorized Bandages Hospital","971 Salgarber Square","Munster","IN","47969","260-048-7718","hospital@stephanie.bolger.org"
"176","DPICOAOQ-9558-521200","Boromir's Malfunctioning Conjures Grocery","1010 Center Square","Humble","TX","76475","817-701-7498","frances09length.boromir@conjuresgrocery.biz"
"178","ZJXPVDU-2945-4568670","Pippin's Clinically Anarchists Livestock and Slaughtery","1588 Fairbanks Path","Framingham Center","MA","1937",,
"179","3457880-RJTJXKAR-2593","Gloin's Movement Gradual Massage and Day Spa","1444 Turner Trail","Manchester","NH","3864","603-258-5584","helen.gloin@gradualmassageanddayspa.org"
"180","XSCAEEWT-496-1500920","Skinbark's Testament Paranoid Non Profit","1333 Jonathan Place","Moscow","ID","83669","986-749-0564",
"181","568-2199660-METCLVO","Imrahil's Instrumental Thyroid Log Cutting Forestry and Wildlife ","789 Hunt Ln","Helena","MT","59102","406-717-6436","logcuttingforestryandwildlife@samanthaimrahil.org"
"182","611660-JHJRSOI-5176","Varda's Quiescent Spacecraft Bail Bonds","418 Alburn Parkway","Gillette","WY","82217",,"alan.varda@spacecraftbailbonds.us"
"183","76560-DMKMQPB-8472","Maggot's Experimental Novelists Youth Services","587 Crock Drv","Peabody",,"2379",,"youthservices@sophie.maggot.net"
"184","PEHOSRI-9226-193400","Gorbag's Malfunctioning Usefulness Mental Health Services","1800 Haught Parkway","Warwick","RI","2812","401-205-6444","mentalhealthservices@levi.gorbag.com"
"185","740980-WBYFHKK-3238","Strider's Perplexing Bandages Tanning Salon","839 Chardon Drv","Gillette","WY","82007","307-717-3595","tanningsalon@richard.strider.org"
"186","EWZKLLGZ-485-9631300","Azog's Monumental Contractual Building Inspection","702 Pershing Place","Austintown","OH","45830",,"buildinginspection@sierra.azog.co.uk"
"187","9490-KQBGGA-8096","Beleriand's Enchantment Visual Livestock and Slaughtery","1424 Warren Crescent","Marion","IA","51249","563-782-8847","lilly09length.beleriand@enchantmentlivestockandslaughtery.org"
"188","1021-7454840-ZUHNIFH","Thingol's Repositioning Witchcraft Auditing","1349 Countiss Avenue","Westbrook","ME","4040","207-541-6100","auditing@carla.thingol.org"
"189","978680-FKVUEMRS-169","Gamling's Comical Thyroid Child Care Services","1491 Miller Drv","Fayetteville","AR","72128","870-206-4425",
"190","78400-NRJCY-525","Artanis's Amusement Manuscript Livestock and Slaughtery","572 Williams Ridge","Westfield",,"47043","463-223-1328","sydney09length.artanis@amusementlivestockandslaughtery.com"
"192","IVIGUIBN-1399-1530","Grahame's Malfunctioning Equalizer Radiology","1450 Lectric Path","La Crosse","WI","53941","262-877-9642","stephanie.grahame@radiology.net"
"193","77560-ZZOTEE-9914","Ancalagon's Originally Uneasiness Concrete Manufacturing","694 Morse Heights","Phoenix","AZ","85723",,"angelica.ancalagon@concretemanufacturing.biz"
"194","UFMGHHKX-693-157240","Butterbur's Malfunctioning Devoid Occupational Therapy","901 Merriam Street","Mission Viejo",,"95457","341-640-9464","occupationaltherapy@lawrence.butterbur.com"
"196","CQVJILNV-6728-287760","Fingolfin's Impractical Witchcraft Mortgage Company","713 Grove Street","Nampa",,"83428","986-531-1928","mortgagecompany@gary.fingolfin.org"
"197","5510-PFQZJQ-5157","Orome's Cylindrical Devoid Technology Services","1356 Richman Crescent","Rock Springs","WY","82243",,"angelique.orome@technologyservices.us"
"198","1100-TUFMAL-2388","Radagast's Traumatized Manuscript Technology Services","1604 Codell St","Central","LA","71450","318-267-8083","technologyservices@sandra.radagast.org"
"199","548-9320-ALMBU","Celebrimbor's Mathematically Thyroid Auto Dealership","936 Heritage Terrace","Rockville","MD","21505","443-878-1467","autodealership@nancy.celebrimbor.us"
"200","BMFPMY-2118-213930","Cotton's Demilitarized Robustness Truck Transportation","760 Nottinghamshire Ln","Sahuarita","AZ","85938",,"trucktransportation@ana.cotton.biz"
"201","2505-24920-YMSGM","Nimloth's Rhetorical Spacecraft Used Car Sales","917 Ridgeland Court","Grand Rapids","MI","49351","947-863-5442","usedcarsales@michael.nimloth.us"
"202","JBYIG-3475-76390","Dior's Perplexing Chemists Construction","527 Sandhurst Avenue","Wilkes-Barre","PA","16107","412-300-4470","construction@samuel.dior.com"
"203","YNPJK-6679-457190","Denethor's Amortized Transcript Gas Extraction","804 Vine Blvd","La Vista","NE","68339","531-372-7434",
"204","526-727440-BHMUKZ","Proudfoot's Detrimental Witchcraft Home Health Services","1231 Melick Avenue","Philadelphia","PA","18244","223-183-7663",
"206","OXVONV-104-67940","Nimloth's Embarrassment Orphanages Bail Bonds","1787 Phillips Lane","Lewiston Orchards","ID","83445","986-804-3918","bailbonds@crystal.nimloth.biz"
"207","MQTMHKY-3159-6134720","Radagast's Magnificent Spacecraft Pawn Brokers","1223 Downard Circle","Colchester","VT","5153","802-698-0723","pawnbrokers@arthur.radagast.us"
"208","LKNKBAHV-5850-4450","Shagrat's Obnoxious Passages Specialty Seafood","1201 Dewey Square","Greenville",,"39078",,"samuel09length.shagrat@specialtyseafood.co.uk"
"209","KINGXZN-6699-9721510","Alatariel's Disenchantment Manuscript Electrolysis","1175 Barkley Path","New Berlin","WI","54660","414-785-7830","electrolysis@lucas.alatariel.net"
"210","OMAXZVA-190-4047190","Fatty's Perplexing Witchcraft Bookkeeping","1081 Rigny Place","Pocatello","ID","83799","208-053-6172",
"211","718-9113640-XUWOVP","Ferny's Repositioning Sloppiness Employment Office","937 Jonathan Drv","Kenner","LA","70140","225-411-0378","employmentoffice@stephanie.ferny.biz"
"212","NZQSCUM-2670-8512150","Nessa's Unnaturally Steroid Medical Office","466 Playford Terrace","Centennial","CO","81610",,"medicaloffice@karen.nessa.us"
"213","2620-8820-OUINR","Halbarad's Accidental Ingenuity Dry cleaning","567 Home Station","Fern Creek","KY","41366","364-017-0970","virginia.halbarad@accidentaldrycleaning.org"
"214","7413-22930-AGXHFVL","Illuvatar's Indexing Lectures Extermination and Parasite Destruction","1398 Winding Lane","Norman",,"73662","539-579-9786",
"215","6330-8160-OGYYFNFC","Curufinwe's Ludicrous Orphanages Residential Care Facility","644 Mary Place","Newark",,"19810","302-080-4229","residentialcarefacility@austincurufinwe.net"
"216","8835-7050-ZTDXROLB","Gothmog's Adjacent Stabilizer Pawn Brokers","1152 Gordon Run","South Euclid","OH","43342","326-705-1618","janet.gothmog@stabilizerpawnbrokers.biz"
"217","MMLRMPD-8101-77690","Birchseed's Departmental Capitalists Towing","1753 Colony Place","East Chattanooga",,"37128","901-646-3171","leo.birchseed@capitaliststowing.net"
"218","24230-GRWJPHMN-736","Kili's Investment Effectiveness Florist","1495 Salgarber Ave","Cheyenne","WY","82083","307-779-7566",
"219","6387-1040-LWEBPGZ","Kementari's Intentionally Thyroid Specialty Seafood","812 Peters Crescent","Lakewood","WA","98592",,"specialtyseafood@heidi.kementari.us"
"220","3480-AJETLKQ-720","Faramir's Percent Annual Bail Bonds","509 Partridge Road","Garden City","MI","48837","810-964-9306","bailbonds@teresa.faramir.net"
"221","8140-DZFWDAP-721","Leaflock's Intercultural Manual Mortgage Company","1009 Hicks Ave","Hudson","OH","45234","513-201-4913","melody09length.leaflock@interculturalmortgagecompany.org"
"222","2902440-XVCXUH-2862","Tinuviel's Movement Publicists Construction and Utilities","1482 Stormont Lane","Newburgh","NY","10126",,"constructionandutilities@valerietinuviel.biz"
"223","NIHJWBNN-9939-4100","Feanor's Continental Antagonists Veterinary Medicine","1178 Monroe Street","Hastings","NE","69041","531-690-0763","jackson.feanor@antagonistsveterinarymedicine.biz"
"224","7810170-RXXUDUB-9025","Huor's Oriental Avoid Electrolysis","1592 Eddy Park","Wilmington",,"19977","302-519-0090",
"226","2230-IJVXLN-4093","Took's Elemental Separateness Mental Health Services","1504 Christopher Court","Wake Forest","NC","28467","919-318-4386","mentalhealthservices@chloe.took.co.uk"
"227","503-6081390-BDQJG","Ecthelion's Penalized Manuscript Barber Shop","845 Stormont Drive","Winston-Salem","NC","27661",,
"228","9795-5790250-ATTTI","Fangorn's Fundamental Spacecraft Bail Bonds","1004 Waters Station","Blytheville","AR","72319",,
"229","990990-BPWHBB-690","Nimrodel's Economical Natures Grocery","621 Cross Rd","Shrewsbury","MA","1701","339-788-7477","lara.nimrodel@grocery.org"
"230","PZKFAXGX-4088-7682310","Angrod's Conceptually Thyroid Gas Production","1767 Northland Lane","Shawnee","KS","67502",,"gasproduction@matthew.angrod.net"
"231","YWVHSJN-466-8888310","Celegorm's Multicultural Void Hotels","884 Aberdeen Parkway","Twin Falls",,"83804","208-521-8074","hotels@andrea.celegorm.com"
"232","1907720-FNROE-752","Narvi's Crystallized Tourists Publishing","1769 Todd Ave","Westerly","RI","2859","401-403-3828",
"234","3676-4891100-UDWAUOK","Galadriel's Subconscious Ensures Car Rental","1684 Wilhelm Path","Waipahu","HI","96788",,"kathleen.galadriel@ensurescarrental.co.uk"
"235","1790-KWODZ-3760","Boffin's Fluorescent Awareness Auto Dealership","1244 Ellis Road","Merrillville","IN","47840","765-962-2850","raymond.boffin@autodealership.com"
"236","3060-NMWMKLI-7145","Tilion's Descent Annual Property Management","408 Northland Trail","Marlborough","MA","2456","351-553-3223","claudia09length.tilion@descentpropertymanagement.co.uk"
"237","187030-SLTTADVT-693","Shagrat's Repositioning Disadvantages Hospital","719 Ritenour Square","Oswego","IL","61310","464-950-9316","hospital@shirley.shagrat.biz"
"238","829750-YEBRE-3300","Mithrandir's Fluorescent Insanity Non Profit","686 Talford Station","Bolingbrook",,"62001",,"nonprofit@danica.mithrandir.com"
"239","5220-THRYFEUN-741","Miriel's Perplexing Responsiveness Land Surveying","659 Grieves Circle","Schaumburg",,"61311",,
"240","ZNIVIOQG-4715-3610","Thorondor's Uneconomical Indebtedness Massage Therapy","1131 Brown Run","South Lake Tahoe","CA","92350",,"tiffany.thorondor@indebtednessmassagetherapy.net"
"241","1010-KGTEW-5455","Elwing's Inaugural Stabilizer Physical Therapy","1634 Seymore Ave","Badger","AK","99929","907-499-3443",
"242","6578-7940-RSWZB","Tilion's Accent Hopelessness Sports Agency","1615 Eastman Lane","Princeton","FL","33920","863-989-4877","sportsagency@mina.tilion.org"
"243","26300-GKVYCCEO-789","Celegorm's Structural Unusual Car Rental","1383 Promway Place","Edina","MN","55574","612-204-2473","brianna.celegorm@unusualcarrental.co.uk"
"244","NHXEM-998-70950","Fingolfin's Implement Endures Bakery","985 Porter Lane","Bixby","OK","74960","405-434-0726","timothy09length.fingolfin@enduresbakery.net"
"245","152-392440-QMMRFL","Amrod's Innocent Witchcraft Truck Transportation","799 Babbs St","Woonsocket",,"2833","401-179-3067","trucktransportation@gerald.amrod.org"
"246","636-97010-XZTNYUY","Curufinwe's Vaporized Spacecraft Whiskey Manufacturing","557 Theobald Court","Natchez","MS","38723","601-588-7502","victoria09length.curufinwe@spacecraftwhiskeymanufacturing.biz"
"247","PHQMUYT-432-30060","Lindenroot's Accidental Psychologists Tax Preparation","726 Blackwood Drive","Conyers","GA","31779",,"taxpreparation@marishka.lindenroot.com"
"248","7530-DGDXHUFT-588","Turambar's Intercontinental Equalizer Beauty Salon","1159 Dawson Crescent","Dover","DE","19725","302-775-2717","joan.turambar@equalizerbeautysalon.biz"
"249","809-8000-CRCTX","Maggot's Unnatural Postscript Non Profit","1463 Strawberry Lane","Fair Lawn","NJ","7106","848-964-3442","nonprofit@ariel.maggot.com"
"250","7775-5400-CLZBZTG","Balin's Heterogeneous Modality Oil Extraction","973 Essex Drv","Duluth",,"30022",,"kyle.balin@heterogeneousoilextraction.net"
